AMAZONAS 4A             
1 39616U 14011A   26142.22100500 -.00000260  00000+0  00000+0 0  9994
2 39616   0.0575 168.5348 0003052 281.4948 155.3676  1.00268977 44455
ASTRA 5B                
1 39617U 14011B   26142.23755167  .00000129  00000+0  00000+0 0  9994
2 39617   0.0593 314.4946 0002093 108.7481 285.6680  1.00270431 44404
IRNSS-1B                
1 39635U 14017A   26139.86086405  .00000103  00000+0  00000+0 0  9999
2 39635  28.9733 240.8911 0024226 185.2284 176.5740  1.00280229 44519
LUCH-5V                 
1 39727U 14023A   26141.85302772 -.00000276  00000+0  00000+0 0  9990
2 39727   5.0702  70.0046 0001901  11.5186 199.8124  1.00272962 44094
KAZSAT-3                
1 39728U 14023B   26142.17314678  .00000052  00000+0  00000+0 0  9996
2 39728   0.0533  82.1117 0000052 321.1800 317.3429  1.00273457 42198
EUTELSAT 3B             
1 39773U 14030A   26142.23347831  .00000012  00000+0  00000+0 0  9994
2 39773   0.0663   9.1383 0003874  48.9982 268.8697  1.00272128 43806
ASIASAT 8 (AMOS-7)      
1 40107U 14046A   26142.25367174 -.00000342  00000+0  00000+0 0  9995
2 40107   0.0238  56.9748 0001279 351.5990  27.9367  1.00278603101886
ASIASAT 6               
1 40141U 14052A   26142.25661841 -.00000370  00000+0  00000+0 0  9999
2 40141   0.0458  93.8215 0000654 322.0851  36.2716  1.00269542 42823
OPTUS 10                
1 40146U 14054A   26142.28639061 -.00000155  00000+0  00000+0 0  9999
2 40146   0.1045 319.3907 0002006  99.0973  80.5413  1.00270695 42775
MEASAT-3B               
1 40147U 14054B   26141.89449402 -.00000249  00000+0  00000+0 0  9998
2 40147   0.0469  44.4078 0003378  24.2429 224.3938  1.00268554 42646
HIMAWARI-8              
1 40267U 14060A   26142.26069177 -.00000284  00000+0  00000+0 0  9996
2 40267   0.0381  84.8218 0000793 355.4690  34.1090  1.00271238 42507
IRNSS-1C                
1 40269U 14061A   26141.89278713 -.00000169  00000+0  00000+0 0  9997
2 40269   6.4513  89.4263 0022499 359.5160 194.9965  1.00273503 42425
INTELSAT 30 (IS-30)     
1 40271U 14062A   26142.07524250 -.00000159  00000+0  00000+0 0  9991
2 40271   0.0278  45.7882 0000759 339.9514 145.9956  1.00269800  6531
ARSAT 1                 
1 40272U 14062B   26142.22161652 -.00000268  00000+0  00000+0 0  9993
2 40272   0.0435  68.3450 0001721 338.1481 201.3395  1.00271846 42361
EUTELSAT 53A            
1 40277U 14064A   26142.25392075  .00000091  00000+0  00000+0 0  9991
2 40277   0.0165 279.7497 0000315 297.4145 167.1310  1.00266738 41300
GSAT-16                 
1 40332U 14078A   26142.17245345  .00000077  00000+0  00000+0 0  9990
2 40332   0.0321 110.1411 0007531 326.0463 280.7996  1.00271474 41843
DIRECTV 14              
1 40333U 14078B   26141.99934787 -.00000134  00000+0  00000+0 0  9990
2 40333   0.0097 327.6145 0000439 286.3461 246.2062  1.00272265 41782
