[{"OBJECT_NAME":"AMAZONAS 4A","OBJECT_ID":"2014-011A","EPOCH":"2026-05-22T05:18:14.832000","MEAN_MOTION":1.00268977,"ECCENTRICITY":0.00030525,"INCLINATION":0.0575,"RA_OF_ASC_NODE":168.5348,"ARG_OF_PERICENTER":281.4948,"MEAN_ANOMALY":155.3676,"EPHEMERIS_TYPE":0,"CLASSIFICATION_TYPE":"U","NORAD_CAT_ID":39616,"ELEMENT_SET_NO":999,"REV_AT_EPOCH":4445,"BSTAR":0,"MEAN_MOTION_DOT":-2.6e-06,"MEAN_MOTION_DDOT":0},{"OBJECT_NAME":"ASTRA 5B","OBJECT_ID":"2014-011B","EPOCH":"2026-05-22T05:42:04.464288","MEAN_MOTION":1.00270431,"ECCENTRICITY":0.00020938,"INCLINATION":0.0593,"RA_OF_ASC_NODE":314.4946,"ARG_OF_PERICENTER":108.7481,"MEAN_ANOMALY":285.668,"EPHEMERIS_TYPE":0,"CLASSIFICATION_TYPE":"U","NORAD_CAT_ID":39617,"ELEMENT_SET_NO":999,"REV_AT_EPOCH":4440,"BSTAR":0,"MEAN_MOTION_DOT":1.29e-06,"MEAN_MOTION_DDOT":0},{"OBJECT_NAME":"IRNSS-1B","OBJECT_ID":"2014-017A","EPOCH":"2026-05-19T20:39:38.653920","MEAN_MOTION":1.00280229,"ECCENTRICITY":0.00242269,"INCLINATION":28.9733,"RA_OF_ASC_NODE":240.8911,"ARG_OF_PERICENTER":185.2284,"MEAN_ANOMALY":176.574,"EPHEMERIS_TYPE":0,"CLASSIFICATION_TYPE":"U","NORAD_CAT_ID":39635,"ELEMENT_SET_NO":999,"REV_AT_EPOCH":4451,"BSTAR":0,"MEAN_MOTION_DOT":1.03e-06,"MEAN_MOTION_DDOT":0},{"OBJECT_NAME":"LUCH-5V","OBJECT_ID":"2014-023A","EPOCH":"2026-05-21T20:28:21.595008","MEAN_MOTION":1.00272962,"ECCENTRICITY":0.00019016,"INCLINATION":5.0702,"RA_OF_ASC_NODE":70.0046,"ARG_OF_PERICENTER":11.5186,"MEAN_ANOMALY":199.8124,"EPHEMERIS_TYPE":0,"CLASSIFICATION_TYPE":"U","NORAD_CAT_ID":39727,"ELEMENT_SET_NO":999,"REV_AT_EPOCH":4409,"BSTAR":0,"MEAN_MOTION_DOT":-2.76e-06,"MEAN_MOTION_DDOT":0},{"OBJECT_NAME":"KAZSAT-3","OBJECT_ID":"2014-023B","EPOCH":"2026-05-22T04:09:19.881792","MEAN_MOTION":1.00273457,"ECCENTRICITY":5.23e-06,"INCLINATION":0.0533,"RA_OF_ASC_NODE":82.1117,"ARG_OF_PERICENTER":321.18,"MEAN_ANOMALY":317.3429,"EPHEMERIS_TYPE":0,"CLASSIFICATION_TYPE":"U","NORAD_CAT_ID":39728,"ELEMENT_SET_NO":999,"REV_AT_EPOCH":4219,"BSTAR":0,"MEAN_MOTION_DOT":5.2e-07,"MEAN_MOTION_DDOT":0},{"OBJECT_NAME":"EUTELSAT 3B","OBJECT_ID":"2014-030A","EPOCH":"2026-05-22T05:36:12.525984","MEAN_MOTION":1.00272128,"ECCENTRICITY":0.00038747,"INCLINATION":0.0663,"RA_OF_ASC_NODE":9.1383,"ARG_OF_PERICENTER":48.9982,"MEAN_ANOMALY":268.8697,"EPHEMERIS_TYPE":0,"CLASSIFICATION_TYPE":"U","NORAD_CAT_ID":39773,"ELEMENT_SET_NO":999,"REV_AT_EPOCH":4380,"BSTAR":0,"MEAN_MOTION_DOT":1.2e-07,"MEAN_MOTION_DDOT":0},{"OBJECT_NAME":"ASIASAT 8 (AMOS-7)","OBJECT_ID":"2014-046A","EPOCH":"2026-05-22T06:05:17.238336","MEAN_MOTION":1.00278603,"ECCENTRICITY":0.00012791,"INCLINATION":0.0238,"RA_OF_ASC_NODE":56.9748,"ARG_OF_PERICENTER":351.599,"MEAN_ANOMALY":27.9367,"EPHEMERIS_TYPE":0,"CLASSIFICATION_TYPE":"U","NORAD_CAT_ID":40107,"ELEMENT_SET_NO":999,"REV_AT_EPOCH":10188,"BSTAR":0,"MEAN_MOTION_DOT":-3.42e-06,"MEAN_MOTION_DDOT":0},{"OBJECT_NAME":"ASIASAT 6","OBJECT_ID":"2014-052A","EPOCH":"2026-05-22T06:09:31.830624","MEAN_MOTION":1.00269542,"ECCENTRICITY":6.543e-05,"INCLINATION":0.0458,"RA_OF_ASC_NODE":93.8215,"ARG_OF_PERICENTER":322.0851,"MEAN_ANOMALY":36.2716,"EPHEMERIS_TYPE":0,"CLASSIFICATION_TYPE":"U","NORAD_CAT_ID":40141,"ELEMENT_SET_NO":999,"REV_AT_EPOCH":4282,"BSTAR":0,"MEAN_MOTION_DOT":-3.7e-06,"MEAN_MOTION_DDOT":0},{"OBJECT_NAME":"OPTUS 10","OBJECT_ID":"2014-054A","EPOCH":"2026-05-22T06:52:24.148704","MEAN_MOTION":1.00270695,"ECCENTRICITY":0.00020069,"INCLINATION":0.1045,"RA_OF_ASC_NODE":319.3907,"ARG_OF_PERICENTER":99.0973,"MEAN_ANOMALY":80.5413,"EPHEMERIS_TYPE":0,"CLASSIFICATION_TYPE":"U","NORAD_CAT_ID":40146,"ELEMENT_SET_NO":999,"REV_AT_EPOCH":4277,"BSTAR":0,"MEAN_MOTION_DOT":-1.55e-06,"MEAN_MOTION_DDOT":0},{"OBJECT_NAME":"MEASAT-3B","OBJECT_ID":"2014-054B","EPOCH":"2026-05-21T21:28:04.283328","MEAN_MOTION":1.00268554,"ECCENTRICITY":0.0003378,"INCLINATION":0.0469,"RA_OF_ASC_NODE":44.4078,"ARG_OF_PERICENTER":24.2429,"MEAN_ANOMALY":224.3938,"EPHEMERIS_TYPE":0,"CLASSIFICATION_TYPE":"U","NORAD_CAT_ID":40147,"ELEMENT_SET_NO":999,"REV_AT_EPOCH":4264,"BSTAR":0,"MEAN_MOTION_DOT":-2.49e-06,"MEAN_MOTION_DDOT":0},{"OBJECT_NAME":"HIMAWARI-8","OBJECT_ID":"2014-060A","EPOCH":"2026-05-22T06:15:23.768928","MEAN_MOTION":1.00271238,"ECCENTRICITY":7.933e-05,"INCLINATION":0.0381,"RA_OF_ASC_NODE":84.8218,"ARG_OF_PERICENTER":355.469,"MEAN_ANOMALY":34.109,"EPHEMERIS_TYPE":0,"CLASSIFICATION_TYPE":"U","NORAD_CAT_ID":40267,"ELEMENT_SET_NO":999,"REV_AT_EPOCH":4250,"BSTAR":0,"MEAN_MOTION_DOT":-2.84e-06,"MEAN_MOTION_DDOT":0},{"OBJECT_NAME":"IRNSS-1C","OBJECT_ID":"2014-061A","EPOCH":"2026-05-21T21:25:36.808032","MEAN_MOTION":1.00273503,"ECCENTRICITY":0.00224995,"INCLINATION":6.4513,"RA_OF_ASC_NODE":89.4263,"ARG_OF_PERICENTER":359.516,"MEAN_ANOMALY":194.9965,"EPHEMERIS_TYPE":0,"CLASSIFICATION_TYPE":"U","NORAD_CAT_ID":40269,"ELEMENT_SET_NO":999,"REV_AT_EPOCH":4242,"BSTAR":0,"MEAN_MOTION_DOT":-1.69e-06,"MEAN_MOTION_DDOT":0},{"OBJECT_NAME":"INTELSAT 30 (IS-30)","OBJECT_ID":"2014-062A","EPOCH":"2026-05-22T01:48:20.952000","MEAN_MOTION":1.002698,"ECCENTRICITY":7.594e-05,"INCLINATION":0.0278,"RA_OF_ASC_NODE":45.7882,"ARG_OF_PERICENTER":339.9514,"MEAN_ANOMALY":145.9956,"EPHEMERIS_TYPE":0,"CLASSIFICATION_TYPE":"U","NORAD_CAT_ID":40271,"ELEMENT_SET_NO":999,"REV_AT_EPOCH":653,"BSTAR":0,"MEAN_MOTION_DOT":-1.59e-06,"MEAN_MOTION_DDOT":0},{"OBJECT_NAME":"ARSAT 1","OBJECT_ID":"2014-062B","EPOCH":"2026-05-22T05:19:07.667328","MEAN_MOTION":1.00271846,"ECCENTRICITY":0.00017216,"INCLINATION":0.0435,"RA_OF_ASC_NODE":68.345,"ARG_OF_PERICENTER":338.1481,"MEAN_ANOMALY":201.3395,"EPHEMERIS_TYPE":0,"CLASSIFICATION_TYPE":"U","NORAD_CAT_ID":40272,"ELEMENT_SET_NO":999,"REV_AT_EPOCH":4236,"BSTAR":0,"MEAN_MOTION_DOT":-2.68e-06,"MEAN_MOTION_DDOT":0},{"OBJECT_NAME":"EUTELSAT 53A","OBJECT_ID":"2014-064A","EPOCH":"2026-05-22T06:05:38.752800","MEAN_MOTION":1.00266738,"ECCENTRICITY":3.15e-05,"INCLINATION":0.0165,"RA_OF_ASC_NODE":279.7497,"ARG_OF_PERICENTER":297.4145,"MEAN_ANOMALY":167.131,"EPHEMERIS_TYPE":0,"CLASSIFICATION_TYPE":"U","NORAD_CAT_ID":40277,"ELEMENT_SET_NO":999,"REV_AT_EPOCH":4130,"BSTAR":0,"MEAN_MOTION_DOT":9.1e-07,"MEAN_MOTION_DDOT":0},{"OBJECT_NAME":"GSAT-16","OBJECT_ID":"2014-078A","EPOCH":"2026-05-22T04:08:19.978080","MEAN_MOTION":1.00271474,"ECCENTRICITY":0.00075316,"INCLINATION":0.0321,"RA_OF_ASC_NODE":110.1411,"ARG_OF_PERICENTER":326.0463,"MEAN_ANOMALY":280.7996,"EPHEMERIS_TYPE":0,"CLASSIFICATION_TYPE":"U","NORAD_CAT_ID":40332,"ELEMENT_SET_NO":999,"REV_AT_EPOCH":4184,"BSTAR":0,"MEAN_MOTION_DOT":7.7e-07,"MEAN_MOTION_DDOT":0},{"OBJECT_NAME":"DIRECTV 14","OBJECT_ID":"2014-078B","EPOCH":"2026-05-21T23:59:03.655968","MEAN_MOTION":1.00272265,"ECCENTRICITY":4.392e-05,"INCLINATION":0.0097,"RA_OF_ASC_NODE":327.6145,"ARG_OF_PERICENTER":286.3461,"MEAN_ANOMALY":246.2062,"EPHEMERIS_TYPE":0,"CLASSIFICATION_TYPE":"U","NORAD_CAT_ID":40333,"ELEMENT_SET_NO":999,"REV_AT_EPOCH":4178,"BSTAR":0,"MEAN_MOTION_DOT":-1.34e-06,"MEAN_MOTION_DDOT":0}]